start=new Date('2022-03-09T00:00:00.000Z').valueOf();
sats=[{"LAUNCH_DATE":"2021-02-16","EPOCH":"2022-03-08T13:21:54.260064","SEMIMAJOR_AXIS":"6925.395","ELEMENT_SET_NO":"999","OBJECT_ID":"2021-012AD","EPHEMERIS_TYPE":"0","COUNTRY_CODE":"US","APOAPSIS":"548.350","DECAY_DATE":null,"OBJECT_NAME":"STARLINK-2030","REV_AT_EPOCH":"5961","PERIAPSIS":"546.169","REF_FRAME":"TEME","TLE_LINE1":"1 47647U 21012AD  22067.55687801 -.00001177  00000-0 -60129-4 0  9991","SITE":"AFETR","OBJECT_TYPE":"PAYLOAD","INCLINATION":"53.0555","FILE":"3350976","RA_OF_ASC_NODE":"155.3999","TIME_SYSTEM":"UTC","RCS_SIZE":"LARGE","ARG_OF_PERICENTER":"53.7521","MEAN_ELEMENT_THEORY":"SGP4","MEAN_MOTION":"15.06384934","GP_ID":"198239129","ECCENTRICITY":"0.00015750","PERIOD":"95.593","MEAN_ANOMALY":"306.3614","NORAD_CAT_ID":"47647","MEAN_MOTION_DOT":"-0.00001177","TLE_LINE2":"2 47647  53.0555 155.3999 0001575  53.7521 306.3614 15.06384934 59612","CENTER_NAME":"EARTH","CLASSIFICATION_TYPE":"U","BSTAR":"-0.00006012900000","MEAN_MOTION_DDOT":"0.0000000000000"},{"TLE_LINE1":"1 47648U 21012AE  22067.87940116 -.00002284  00000-0 -13457-3 0  9999","REF_FRAME":"TEME","OBJECT_TYPE":"PAYLOAD","SITE":"AFETR","INCLINATION":"53.0560","FILE":"3351330","RA_OF_ASC_NODE":"133.9491","TIME_SYSTEM":"UTC","RCS_SIZE":"MEDIUM","MEAN_MOTION":"15.06378436","ECCENTRICITY":"0.00017160","GP_ID":"198273326","ARG_OF_PERICENTER":"55.9667","MEAN_ELEMENT_THEORY":"SGP4","PERIOD":"95.594","MEAN_ANOMALY":"304.1484","CLASSIFICATION_TYPE":"U","BSTAR":"-0.00013457000000","NORAD_CAT_ID":"47648","MEAN_MOTION_DOT":"-0.00002284","TLE_LINE2":"2 47648  53.0560 133.9491 0001716  55.9667 304.1484 15.06378436 59947","CENTER_NAME":"EARTH","MEAN_MOTION_DDOT":"0.0000000000000","EPOCH":"2022-03-08T21:06:20.260224","SEMIMAJOR_AXIS":"6925.415","LAUNCH_DATE":"2021-02-16","OBJECT_ID":"2021-012AE","ELEMENT_SET_NO":"999","EPHEMERIS_TYPE":"0","COUNTRY_CODE":"US","APOAPSIS":"548.468","DECAY_DATE":null,"OBJECT_NAME":"STARLINK-2031","REV_AT_EPOCH":"5994","PERIAPSIS":"546.091"},{"OBJECT_NAME":"STARLINK-2032","APOAPSIS":"548.346","DECAY_DATE":null,"REV_AT_EPOCH":"5994","PERIAPSIS":"546.145","ELEMENT_SET_NO":"999","OBJECT_ID":"2021-012AF","LAUNCH_DATE":"2021-02-16","EPOCH":"2022-03-08T21:11:37.410432","SEMIMAJOR_AXIS":"6925.380","COUNTRY_CODE":"US","EPHEMERIS_TYPE":"0","MEAN_ANOMALY":"305.7029","PERIOD":"95.593","ARG_OF_PERICENTER":"54.4108","MEAN_ELEMENT_THEORY":"SGP4","MEAN_MOTION":"15.06389644","ECCENTRICITY":"0.00015890","GP_ID":"198273577","MEAN_MOTION_DDOT":"0.0000000000000","NORAD_CAT_ID":"47649","MEAN_MOTION_DOT":"-0.00000617","TLE_LINE2":"2 47649  53.0546 133.9284 0001589  54.4108 305.7029 15.06389644 59949","CENTER_NAME":"EARTH","CLASSIFICATION_TYPE":"U","BSTAR":"-0.00002253900000","OBJECT_TYPE":"PAYLOAD","SITE":"AFETR","REF_FRAME":"TEME","TLE_LINE1":"1 47649U 21012AF  22067.88307188 -.00000617  00000-0 -22539-4 0  9997","RA_OF_ASC_NODE":"133.9284","RCS_SIZE":"LARGE","TIME_SYSTEM":"UTC","INCLINATION":"53.0546","FILE":"3351330"},{"MEAN_MOTION_DDOT":"0.0000000000000","TLE_LINE2":"2 47650  53.0544 133.9942 0001482  59.5221 300.5914 15.06383511 59925","CENTER_NAME":"EARTH","MEAN_MOTION_DOT":"-0.00002548","NORAD_CAT_ID":"47650","BSTAR":"-0.00015229000000","CLASSIFICATION_TYPE":"U","MEAN_ANOMALY":"300.5914","PERIOD":"95.593","MEAN_ELEMENT_THEORY":"SGP4","ARG_OF_PERICENTER":"59.5221","GP_ID":"198273828","ECCENTRICITY":"0.00014820","MEAN_MOTION":"15.06383511","RCS_SIZE":"LARGE","TIME_SYSTEM":"UTC","RA_OF_ASC_NODE":"133.9942","FILE":"3351330","INCLINATION":"53.0544","OBJECT_TYPE":"PAYLOAD","SITE":"AFETR","REF_FRAME":"TEME","TLE_LINE1":"1 47650U 21012AG  22067.86833235 -.00002548  00000-0 -15229-3 0  9996","REV_AT_EPOCH":"5992","PERIAPSIS":"546.238","OBJECT_NAME":"STARLINK-2033","DECAY_DATE":null,"APOAPSIS":"548.290","COUNTRY_CODE":"US","EPHEMERIS_TYPE":"0","ELEMENT_SET_NO":"999","OBJECT_ID":"2021-012AG","LAUNCH_DATE":"2021-02-16","SEMIMAJOR_AXIS":"6925.399","EPOCH":"2022-03-08T20:50:23.915040"},{"MEAN_MOTION_DDOT":"0.0000000000000","CLASSIFICATION_TYPE":"U","BSTAR":"-0.00001121100000","TLE_LINE2":"2 47651  53.0548 154.7384 0001383  74.6487 285.4655 15.06380914 59638","CENTER_NAME":"EARTH","NORAD_CAT_ID":"47651","MEAN_MOTION_DOT":"-0.00000448","MEAN_ANOMALY":"285.4655","PERIOD":"95.593","ECCENTRICITY":"0.00013830","GP_ID":"198272576","MEAN_MOTION":"15.06380914","MEAN_ELEMENT_THEORY":"SGP4","ARG_OF_PERICENTER":"74.6487","TIME_SYSTEM":"UTC","RCS_SIZE":"LARGE","RA_OF_ASC_NODE":"154.7384","FILE":"3351330","INCLINATION":"53.0548","OBJECT_TYPE":"PAYLOAD","SITE":"AFETR","TLE_LINE1":"1 47651U 21012AH  22067.70336781 -.00000448  00000-0 -11211-4 0  9999","REF_FRAME":"TEME","PERIAPSIS":"546.314","REV_AT_EPOCH":"5963","OBJECT_NAME":"STARLINK-2035","DECAY_DATE":null,"APOAPSIS":"548.230","COUNTRY_CODE":"US","EPHEMERIS_TYPE":"0","OBJECT_ID":"2021-012AH","ELEMENT_SET_NO":"999","SEMIMAJOR_AXIS":"6925.407","EPOCH":"2022-03-08T16:52:50.978784","LAUNCH_DATE":"2021-02-16"},{"OBJECT_ID":"2021-012AJ","ELEMENT_SET_NO":"999","SEMIMAJOR_AXIS":"6925.417","EPOCH":"2022-03-08T17:31:22.371456","LAUNCH_DATE":"2021-02-16","COUNTRY_CODE":"US","EPHEMERIS_TYPE":"0","OBJECT_NAME":"STARLINK-2036","DECAY_DATE":null,"APOAPSIS":"548.370","REV_AT_EPOCH":"5963","PERIAPSIS":"546.195","OBJECT_TYPE":"PAYLOAD","SITE":"AFETR","TLE_LINE1":"1 47652U 21012AJ  22067.73012004 -.00003085  00000-0 -18839-3 0  9994","REF_FRAME":"TEME","RCS_SIZE":"LARGE","TIME_SYSTEM":"UTC","RA_OF_ASC_NODE":"154.6179","FILE":"3351330","INCLINATION":"53.0554","MEAN_ANOMALY":"304.5356","PERIOD":"95.594","GP_ID":"198272826","ECCENTRICITY":"0.00015700","MEAN_MOTION":"15.06377578","MEAN_ELEMENT_THEORY":"SGP4","ARG_OF_PERICENTER":"55.5781","MEAN_MOTION_DDOT":"0.0000000000000","BSTAR":"-0.00018839000000","CLASSIFICATION_TYPE":"U","TLE_LINE2":"2 47652  53.0554 154.6179 0001570  55.5781 304.5356 15.06377578 59633","CENTER_NAME":"EARTH","MEAN_MOTION_DOT":"-0.00003085","NORAD_CAT_ID":"47652"},{"EPHEMERIS_TYPE":"0","COUNTRY_CODE":"US","LAUNCH_DATE":"2021-02-16","EPOCH":"2022-03-08T14:12:17.777088","SEMIMAJOR_AXIS":"6925.368","ELEMENT_SET_NO":"999","OBJECT_ID":"2021-012AK","PERIAPSIS":"546.093","REV_AT_EPOCH":"5988","APOAPSIS":"548.373","DECAY_DATE":null,"OBJECT_NAME":"STARLINK-2037","INCLINATION":"53.0543","FILE":"3351330","RA_OF_ASC_NODE":"135.2213","TIME_SYSTEM":"UTC","RCS_SIZE":"LARGE","REF_FRAME":"TEME","TLE_LINE1":"1 47653U 21012AK  22067.59187242  .00001830  00000-0  14174-3 0  9998","SITE":"AFETR","OBJECT_TYPE":"PAYLOAD","NORAD_CAT_ID":"47653","MEAN_MOTION_DOT":"0.00001830","CENTER_NAME":"EARTH","TLE_LINE2":"2 47653  53.0543 135.2213 0001646  50.7457 309.3678 15.06393789 59886","BSTAR":"0.00014174000000","CLASSIFICATION_TYPE":"U","MEAN_MOTION_DDOT":"0.0000000000000","ARG_OF_PERICENTER":"50.7457","MEAN_ELEMENT_THEORY":"SGP4","MEAN_MOTION":"15.06393789","GP_ID":"198274078","ECCENTRICITY":"0.00016460","MEAN_ANOMALY":"309.3678","PERIOD":"95.593"},{"REV_AT_EPOCH":"5963","PERIAPSIS":"546.093","OBJECT_NAME":"STARLINK-2038","APOAPSIS":"548.428","DECAY_DATE":null,"COUNTRY_CODE":"US","EPHEMERIS_TYPE":"0","OBJECT_ID":"2021-012AL","ELEMENT_SET_NO":"999","EPOCH":"2022-03-08T17:36:39.842208","SEMIMAJOR_AXIS":"6925.396","LAUNCH_DATE":"2021-02-16","MEAN_MOTION_DDOT":"0.0000000000000","CLASSIFICATION_TYPE":"U","BSTAR":"0.00049803000000","MEAN_MOTION_DOT":"0.00007141","NORAD_CAT_ID":"47654","CENTER_NAME":"EARTH","TLE_LINE2":"2 47654  53.0537 154.5882 0001686  55.2477 304.8670 15.06384565 59639","PERIOD":"95.593","MEAN_ANOMALY":"304.8670","MEAN_MOTION":"15.06384565","ECCENTRICITY":"0.00016860","GP_ID":"198274329","ARG_OF_PERICENTER":"55.2477","MEAN_ELEMENT_THEORY":"SGP4","RA_OF_ASC_NODE":"154.5882","RCS_SIZE":"LARGE","TIME_SYSTEM":"UTC","INCLINATION":"53.0537","FILE":"3351330","OBJECT_TYPE":"PAYLOAD","SITE":"AFETR","TLE_LINE1":"1 47654U 21012AL  22067.73379447  .00007141  00000-0  49803-3 0  9993","REF_FRAME":"TEME"},{"REV_AT_EPOCH":"5963","PERIAPSIS":"546.283","DECAY_DATE":null,"APOAPSIS":"548.191","OBJECT_NAME":"STARLINK-2039","EPHEMERIS_TYPE":"0","COUNTRY_CODE":"US","LAUNCH_DATE":"2021-02-16","SEMIMAJOR_AXIS":"6925.372","EPOCH":"2022-03-08T17:26:02.560992","ELEMENT_SET_NO":"999","OBJECT_ID":"2021-012AM","TLE_LINE2":"2 47655  53.0551 154.6276 0001378  61.7630 298.3498 15.06392343 59633","CENTER_NAME":"EARTH","MEAN_MOTION_DOT":"-0.00002097","NORAD_CAT_ID":"47655","BSTAR":"-0.00012195000000","CLASSIFICATION_TYPE":"U","MEAN_MOTION_DDOT":"0.0000000000000","MEAN_ELEMENT_THEORY":"SGP4","ARG_OF_PERICENTER":"61.7630","ECCENTRICITY":"0.00013780","GP_ID":"198273077","MEAN_MOTION":"15.06392343","MEAN_ANOMALY":"298.3498","PERIOD":"95.593","FILE":"3351330","INCLINATION":"53.0551","TIME_SYSTEM":"UTC","RCS_SIZE":"LARGE","RA_OF_ASC_NODE":"154.6276","REF_FRAME":"TEME","TLE_LINE1":"1 47655U 21012AM  22067.72641853 -.00002097  00000-0 -12195-3 0  9997","OBJECT_TYPE":"PAYLOAD","SITE":"AFETR"},{"COUNTRY_CODE":"US","EPHEMERIS_TYPE":"0","ELEMENT_SET_NO":"999","OBJECT_ID":"2021-012AN","LAUNCH_DATE":"2021-02-16","EPOCH":"2022-03-08T21:01:00.266592","SEMIMAJOR_AXIS":"6925.381","REV_AT_EPOCH":"5993","PERIAPSIS":"546.051","OBJECT_NAME":"STARLINK-2040","APOAPSIS":"548.441","DECAY_DATE":null,"RA_OF_ASC_NODE":"133.9554","TIME_SYSTEM":"UTC","RCS_SIZE":"LARGE","INCLINATION":"53.0541","FILE":"3351330","SITE":"AFETR","OBJECT_TYPE":"PAYLOAD","REF_FRAME":"TEME","TLE_LINE1":"1 47656U 21012AN  22067.87569753 -.00002640  00000-0 -15843-3 0  9999","MEAN_MOTION_DDOT":"0.0000000000000","NORAD_CAT_ID":"47656","MEAN_MOTION_DOT":"-0.00002640","TLE_LINE2":"2 47656  53.0541 133.9554 0001726  51.3750 308.7393 15.06389414 59935","CENTER_NAME":"EARTH","CLASSIFICATION_TYPE":"U","BSTAR":"-0.00015843000000","MEAN_ANOMALY":"308.7393","PERIOD":"95.593","ARG_OF_PERICENTER":"51.3750","MEAN_ELEMENT_THEORY":"SGP4","MEAN_MOTION":"15.06389414","GP_ID":"198273327","ECCENTRICITY":"0.00017260"}];
